[{"OBJECT_NAME":"STARLINK-34275","OBJECT_ID":"2025-129B","EPOCH":"2026-03-09T09:40:02.390880","MEAN_MOTION":14.9832652,"ECCENTRICITY":0.00036514,"INCLINATION":70.0009,"RA_OF_ASC_NODE":75.2092,"ARG_OF_PERICENTER":265.5021,"MEAN_ANOMALY":94.5721,"EPHEMERIS_TYPE":0,"CLASSIFICATION_TYPE":"U","NORAD_CAT_ID":64413,"ELEMENT_SET_NO":999,"REV_AT_EPOCH":4124,"BSTAR":-0.00018101844,"MEAN_MOTION_DOT":-2.252e-5,"MEAN_MOTION_DDOT":0},{"OBJECT_NAME":"CZ-2D DEB","OBJECT_ID":"2017-060E","EPOCH":"2026-03-09T23:34:37.430688","MEAN_MOTION":14.93647319,"ECCENTRICITY":0.00123991,"INCLINATION":97.5938,"RA_OF_ASC_NODE":76.1834,"ARG_OF_PERICENTER":70.348,"MEAN_ANOMALY":289.9078,"EPHEMERIS_TYPE":0,"CLASSIFICATION_TYPE":"U","NORAD_CAT_ID":44612,"ELEMENT_SET_NO":999,"REV_AT_EPOCH":45207,"BSTAR":0.00055303734,"MEAN_MOTION_DOT":5.798e-5,"MEAN_MOTION_DDOT":0}]
